ONEWEB-0668             
1 56711U 23068B   24249.30264196  .00000308  00000+0  77120-3 0  9991
2 56711  87.9164 358.1854 0002362  94.6540 265.4861 13.16592555 66266
ONEWEB-0676             
1 56712U 23068C   24249.28283742  .00000152  00000+0  36529-3 0  9992
2 56712  87.9171 358.2008 0001240  91.6783 268.4490 13.16594139 66189
ONEWEB-0677             
1 56713U 23068D   24248.96618814 -.00000009  00000+0 -53627-4 0  9991
2 56713  87.9208  43.7983 0001722  84.4944 275.6385 13.20773450 63970
ONEWEB-0678             
1 56714U 23068E   24249.32616721  .00000086  00000+0  19384-3 0  9992
2 56714  87.9084  28.4815 0001488 106.6570 253.4723 13.15550852 63847
ONEWEB-0679             
1 56715U 23068F   24249.25197795  .00000085  00000+0  18842-3 0  9997
2 56715  87.9168 358.2078 0002018  80.0437 280.0921 13.16593494 66202
ONEWEB-0680             
1 56716U 23068G   24249.31930553  .00000183  00000+0  41264-3 0  9995
2 56716  87.9355  13.4042 0002556  90.3111 269.8316 13.21824143 65242
ONEWEB-0681             
1 56717U 23068H   24249.32952856  .00000098  00000+0  20462-3 0  9999
2 56717  87.9349  13.3812 0001256  57.5749 302.5506 13.21829484 65236
ONEWEB-0682             
1 56718U 23068J   24249.35231387  .00000041  00000+0  75499-4 0  9991
2 56718  87.9078  28.5156 0002195  86.6005 273.5376 13.15550629 64018
